ARIRANG-2 (KOMPSAT-2)   
1 29268U 06031A   24226.88576687  .00001670  00000+0  32901-3 0  9999
2 29268  97.8601  72.5214 0015820  49.0358   8.0287 14.63676235963080
EUTELSAT HOTBIRD 13B    
1 29270U 06032A   24226.90574812  .00000166  00000+0  00000+0 0  9994
2 29270   0.0263 358.8355 0004100 151.6781 171.4320  1.00271346 40561
JCSAT-3A                
1 29272U 06033A   24226.92458182 -.00000335  00000+0  00000+0 0  9999
2 29272   0.0483 273.8370 0002258 217.9682 291.8912  1.00270874 40994
SYRACUSE 3B             
1 29273U 06033B   24226.89809014 -.00000034  00000+0  00000+0 0  9996
2 29273   1.1658  88.8068 0003483  57.8421 134.2550  1.00271682 65962
HINODE (SOLAR-B)        
1 29479U 06041A   24226.92959721  .00003807  00000+0  69151-3 0  9994
2 29479  98.0890 241.4568 0016436 257.1121 102.8247 14.66686061956240
NAVSTAR 58 (USA 190)    
1 29486U 06042A   24226.92670529  .00000042  00000+0  00000+0 0  9991
2 29486  54.6793 178.0001 0104232  39.6484 331.7359  2.00552358130913
DIRECTV 9S              
1 29494U 06043A   24226.87903220 -.00000103  00000+0  00000+0 0  9991
2 29494   0.6741  89.0364 0003085  55.0428  33.9656  1.00271831 44641
SHIJIAN-6 02A (SJ-6 02A)
1 29505U 06046A   24226.83373907  .00015495  00000+0  11113-2 0  9995
2 29505  97.7190 253.8272 0002447 282.4529  77.6423 15.04433394970825
SHIJIAN-6 02B (SJ-6 02B)
1 29506U 06046B   24226.84609548  .00004786  00000+0  41345-3 0  9992
2 29506  97.7381 251.2106 0003334  99.1905 260.9694 14.97689362969951
NAVSTAR 59 (USA 192)    
1 29601U 06052A   24226.33527898  .00000088  00000+0  00000+0 0  9996
2 29601  55.1168 240.7021 0084252  83.5172 277.4883  2.00570976129916
WILDBLUE-1              
1 29643U 06054A   24226.87703069 -.00000039  00000+0  00000+0 0  9996
2 29643   1.0563  89.4915 0001884  41.4509  36.3911  1.00271790 47057
LAPAN-TUBSAT            
1 29709U 07001A   24226.85679970  .00002719  00000+0  33140-3 0  9994
2 29709  98.0731 202.7275 0011765 207.2381 152.8217 14.84191390951354
THEMIS A                
1 30580U 07004A   24226.39316404  .00000003  00000+0  00000+0 0  9994
2 30580   9.4829 260.7949 8363383 330.5788   1.6431  0.87834608 35361
SKYNET 5A               
1 30794U 07007B   24226.91805513 -.00000264  00000+0  00000+0 0  9996
2 30794   3.5756  81.8339 0003298  70.2235 236.4705  1.00270212 63959
THEMIS D                
1 30797U 07004D   24226.71925939  .00000034  00000+0  00000+0 0  9993
2 30797   5.1518 259.2648 8355947 336.2005  93.0936  0.87835790 35166
THEMIS E                
1 30798U 07004E   24226.57569260  .00000024  00000+0  00000+0 0  9998
2 30798   7.0273 278.8337 8346019 317.8159  62.3484  0.87833247 60006
ANIK F3                 
1 31102U 07009A   24226.73248684  .00000010  00000+0  00000+0 0  9990
2 31102   0.0119 110.3013 0002115  15.0592 342.2716  1.00270587 39827
HAIYANG-1B              
1 31113U 07010A   24226.93633463  .00000618  00000+0  25209-3 0  9995
2 31113  98.2975 226.3348 0014468  39.2901 320.9330 14.30652301904497
SAUDISAT 3              
1 31118U 07012B   24227.07787051  .00001646  00000+0  28014-3 0  9990
2 31118  98.0582 170.0124 0014309 200.9559 159.1063 14.70342493928999
SAUDICOMSAT 7           
1 31119U 07012C   24226.92182659  .00003509  00000+0  66231-3 0  9990
2 31119  98.2800 180.9381 0058643 142.0948 218.4404 14.64004110923983
SAUDICOMSAT 6           
1 31121U 07012E   24226.79569124  .00003330  00000+0  66957-3 0  9991
2 31121  98.3118 175.4642 0072703 260.3163  98.9819 14.60632218922010
SAUDICOMSAT 5           
1 31124U 07012H   24226.91580753  .00004222  00000+0  76691-3 0  9996
2 31124  98.2506 181.8980 0050850  81.0118 279.6836 14.65882567925004
SAUDICOMSAT 3           
1 31125U 07012J   24226.88023778  .00005159  00000+0  89622-3 0  9990
2 31125  98.2175 182.5939 0041506  19.3268 340.9499 14.68045385926074
SAUDICOMSAT 4           
1 31127U 07012L   24226.57830846  .00003226  00000+0  62757-3 0  9993
2 31127  98.3002 179.1061 0065169 198.6071 161.2747 14.62460958922985
ASTRA 1L                
1 31306U 07016A   24226.61689434  .00000130  00000+0  00000+0 0  9996
2 31306   0.0921 296.5691 0001482 253.2903  13.9529  1.00270998 38257
GALAXY 17 (G-17)        
1 31307U 07016B   24226.88225205 -.00000196  00000+0  00000+0 0  9991
2 31307   1.2576  88.6403 0003464  62.2060  44.5508  1.00271477 63069
YAOGAN-2                
1 31490U 07019A   24227.07429316  .00004572  00000+0  60865-3 0  9998
2 31490  98.3158  52.6309 0019663 284.4787  75.4242 14.80081132928105
