OBJECT_NAME,OBJECT_ID,EPOCH,MEAN_MOTION,ECCENTRICITY,INCLINATION,RA_OF_ASC_NODE,ARG_OF_PERICENTER,MEAN_ANOMALY,EPHEMERIS_TYPE,CLASSIFICATION_TYPE,NORAD_CAT_ID,ELEMENT_SET_NO,REV_AT_EPOCH,BSTAR,MEAN_MOTION_DOT,MEAN_MOTION_DDOT
ARIRANG-2 (KOMPSAT-2),2006-031A,2024-08-13T21:15:30.257568,14.63676235,.001582,97.8601,72.5214,49.0358,8.0287,0,U,29268,999,96308,.32901E-3,.167E-4,0
EUTELSAT HOTBIRD 13B,2006-032A,2024-08-13T21:44:16.637568,1.00271346,.00041,0.0263,358.8355,151.6781,171.4320,0,U,29270,999,4056,0,.166E-5,0
JCSAT-3A,2006-033A,2024-08-13T22:11:23.869248,1.00270874,.0002258,0.0483,273.8370,217.9682,291.8912,0,U,29272,999,4099,0,-.335E-5,0
SYRACUSE 3B,2006-033B,2024-08-13T21:33:14.988096,1.00271682,.0003483,1.1658,88.8068,57.8421,134.2550,0,U,29273,999,6596,0,-.34E-6,0
HINODE (SOLAR-B),2006-041A,2024-08-13T22:18:37.198944,14.66686061,.0016436,98.0890,241.4568,257.1121,102.8247,0,U,29479,999,95624,.69151E-3,.3807E-4,0
NAVSTAR 58 (USA 190),2006-042A,2024-08-13T22:14:27.337056,2.00552358,.0104232,54.6793,178.0001,39.6484,331.7359,0,U,29486,999,13091,0,.42E-6,0
DIRECTV 9S,2006-043A,2024-08-13T21:05:48.382080,1.00271831,.0003085,0.6741,89.0364,55.0428,33.9656,0,U,29494,999,4464,0,-.103E-5,0
SHIJIAN-6 02A (SJ-6 02A),2006-046A,2024-08-13T20:00:35.055648,15.04433394,.0002447,97.7190,253.8272,282.4529,77.6423,0,U,29505,999,97082,.11113E-2,.15495E-3,0
SHIJIAN-6 02B (SJ-6 02B),2006-046B,2024-08-13T20:18:22.649472,14.97689362,.0003334,97.7381,251.2106,99.1905,260.9694,0,U,29506,999,96995,.41345E-3,.4786E-4,0
NAVSTAR 59 (USA 192),2006-052A,2024-08-13T08:02:48.103872,2.00570976,.0084252,55.1168,240.7021,83.5172,277.4883,0,U,29601,999,12991,0,.88E-6,0
WILDBLUE-1,2006-054A,2024-08-13T21:02:55.451616,1.00271790,.0001884,1.0563,89.4915,41.4509,36.3911,0,U,29643,999,4705,0,-.39E-6,0
LAPAN-TUBSAT,2007-001A,2024-08-13T20:33:47.494080,14.84191390,.0011765,98.0731,202.7275,207.2381,152.8217,0,U,29709,999,95135,.3314E-3,.2719E-4,0
THEMIS A,2007-004A,2024-08-13T09:26:09.373056,0.87834608,.8363383,9.4829,260.7949,330.5788,1.6431,0,U,30580,999,3536,0,.3E-7,0
SKYNET 5A,2007-007B,2024-08-13T22:01:59.963232,1.00270212,.0003298,3.5756,81.8339,70.2235,236.4705,0,U,30794,999,6395,0,-.264E-5,0
THEMIS D,2007-004D,2024-08-13T17:15:44.011296,0.87835790,.8355947,5.1518,259.2648,336.2005,93.0936,0,U,30797,999,3516,0,.34E-6,0
THEMIS E,2007-004E,2024-08-13T13:48:59.840640,0.87833247,.8346019,7.0273,278.8337,317.8159,62.3484,0,U,30798,999,6000,0,.24E-6,0
ANIK F3,2007-009A,2024-08-13T17:34:46.862976,1.00270587,.0002115,0.0119,110.3013,15.0592,342.2716,0,U,31102,999,3982,0,.1E-6,0
HAIYANG-1B,2007-010A,2024-08-13T22:28:19.312032,14.30652301,.0014468,98.2975,226.3348,39.2901,320.9330,0,U,31113,999,90449,.25209E-3,.618E-5,0
SAUDISAT 3,2007-012B,2024-08-14T01:52:08.012064,14.70342493,.0014309,98.0582,170.0124,200.9559,159.1063,0,U,31118,999,92899,.28014E-3,.1646E-4,0
SAUDICOMSAT 7,2007-012C,2024-08-13T22:07:25.817376,14.64004110,.0058643,98.2800,180.9381,142.0948,218.4404,0,U,31119,999,92398,.66231E-3,.3509E-4,0
SAUDICOMSAT 6,2007-012E,2024-08-13T19:05:47.723136,14.60632218,.0072703,98.3118,175.4642,260.3163,98.9819,0,U,31121,999,92201,.66957E-3,.333E-4,0
SAUDICOMSAT 5,2007-012H,2024-08-13T21:58:45.770592,14.65882567,.005085,98.2506,181.8980,81.0118,279.6836,0,U,31124,999,92500,.76691E-3,.4222E-4,0
SAUDICOMSAT 3,2007-012J,2024-08-13T21:07:32.544192,14.68045385,.0041506,98.2175,182.5939,19.3268,340.9499,0,U,31125,999,92607,.89622E-3,.5159E-4,0
SAUDICOMSAT 4,2007-012L,2024-08-13T13:52:45.850944,14.62460958,.0065169,98.3002,179.1061,198.6071,161.2747,0,U,31127,999,92298,.62757E-3,.3226E-4,0
ASTRA 1L,2007-016A,2024-08-13T14:48:19.670976,1.00270998,.0001482,0.0921,296.5691,253.2903,13.9529,0,U,31306,999,3825,0,.13E-5,0
GALAXY 17 (G-17),2007-016B,2024-08-13T21:10:26.577120,1.00271477,.0003464,1.2576,88.6403,62.2060,44.5508,0,U,31307,999,6306,0,-.196E-5,0
YAOGAN-2,2007-019A,2024-08-14T01:46:58.929024,14.80081132,.0019663,98.3158,52.6309,284.4787,75.4242,0,U,31490,999,92810,.60865E-3,.4572E-4,0
